start=new Date('2023-04-12T00:00:00.000Z').valueOf();
sats=[{"PERIOD":"95.592","ECCENTRICITY":"0.00010720","LAUNCH_DATE":"2021-05-04","DECAY_DATE":null,"SITE":"AFETR","TLE_LINE1":"1 48390U 21038AP  23101.30271689  .00005465  00000-0  38554-3 0  9999","MEAN_MOTION":"15.06394851","FILE":"3885783","CLASSIFICATION_TYPE":"U","EPOCH":"2023-04-11T07:15:54.739296","TIME_SYSTEM":"UTC","RA_OF_ASC_NODE":"75.3455","MEAN_ANOMALY":"265.5045","RCS_SIZE":"LARGE","ELEMENT_SET_NO":"999","INCLINATION":"53.0534","PERIAPSIS":"546.487","TLE_LINE2":"2 48390  53.0534  75.3455 0001072  94.6066 265.5045 15.06394851108240","COUNTRY_CODE":"US","REF_FRAME":"TEME","OBJECT_NAME":"STARLINK-2586","MEAN_ELEMENT_THEORY":"SGP4","EPHEMERIS_TYPE":"0","NORAD_CAT_ID":"48390","REV_AT_EPOCH":"10824","GP_ID":"229914394","OBJECT_ID":"2021-038AP","ARG_OF_PERICENTER":"94.6066","BSTAR":"0.00038554000000","CENTER_NAME":"EARTH","MEAN_MOTION_DOT":"0.00005465","SEMIMAJOR_AXIS":"6925.364","MEAN_MOTION_DDOT":"0.0000000000000","OBJECT_TYPE":"PAYLOAD","APOAPSIS":"547.972"},{"BSTAR":"-0.00025520000000","CENTER_NAME":"EARTH","GP_ID":"229921684","OBJECT_ID":"2021-038AQ","ARG_OF_PERICENTER":"90.2262","REV_AT_EPOCH":"10760","MEAN_ELEMENT_THEORY":"SGP4","EPHEMERIS_TYPE":"0","NORAD_CAT_ID":"48391","APOAPSIS":"548.135","OBJECT_TYPE":"PAYLOAD","MEAN_MOTION_DDOT":"0.0000000000000","SEMIMAJOR_AXIS":"6925.379","MEAN_MOTION_DOT":"-0.00004079","FILE":"3885870","MEAN_MOTION":"15.06390225","TLE_LINE1":"1 48391U 21038AQ  23101.29902841 -.00004079  00000-0 -25520-3 0  9990","CLASSIFICATION_TYPE":"U","SITE":"AFETR","DECAY_DATE":null,"LAUNCH_DATE":"2021-05-04","ECCENTRICITY":"0.00012870","PERIOD":"95.593","OBJECT_NAME":"STARLINK-2607","REF_FRAME":"TEME","PERIAPSIS":"546.352","TLE_LINE2":"2 48391  53.0544  75.3631 0001287  90.2262 269.8874 15.06390225107603","COUNTRY_CODE":"US","RCS_SIZE":"LARGE","INCLINATION":"53.0544","ELEMENT_SET_NO":"999","RA_OF_ASC_NODE":"75.3631","TIME_SYSTEM":"UTC","MEAN_ANOMALY":"269.8874","EPOCH":"2023-04-11T07:10:36.054624"},{"ELEMENT_SET_NO":"999","INCLINATION":"53.0573","RCS_SIZE":"LARGE","EPOCH":"2023-04-11T07:05:16.256256","TIME_SYSTEM":"UTC","MEAN_ANOMALY":"241.9150","RA_OF_ASC_NODE":"75.3808","REF_FRAME":"TEME","OBJECT_NAME":"STARLINK-2605","COUNTRY_CODE":"US","TLE_LINE2":"2 48392  53.0573  75.3808 0001459 118.1986 241.9150 15.06381775108245","PERIAPSIS":"546.259","ECCENTRICITY":"0.00014590","DECAY_DATE":null,"LAUNCH_DATE":"2021-05-04","PERIOD":"95.593","CLASSIFICATION_TYPE":"U","TLE_LINE1":"1 48392U 21038AR  23101.29532704 -.00006477  00000-0 -41650-3 0  9994","MEAN_MOTION":"15.06381775","FILE":"3885783","SITE":"AFETR","SEMIMAJOR_AXIS":"6925.404","MEAN_MOTION_DOT":"-0.00006477","OBJECT_TYPE":"PAYLOAD","APOAPSIS":"548.280","MEAN_MOTION_DDOT":"0.0000000000000","REV_AT_EPOCH":"10824","NORAD_CAT_ID":"48392","MEAN_ELEMENT_THEORY":"SGP4","EPHEMERIS_TYPE":"0","CENTER_NAME":"EARTH","BSTAR":"-0.00041650000000","OBJECT_ID":"2021-038AR","ARG_OF_PERICENTER":"118.1986","GP_ID":"229914896"},{"PERIOD":"95.594","LAUNCH_DATE":"2021-05-04","DECAY_DATE":null,"ECCENTRICITY":"0.00011970","SITE":"AFETR","CLASSIFICATION_TYPE":"U","FILE":"3885783","MEAN_MOTION":"15.06376786","TLE_LINE1":"1 48393U 21038AS  23101.35800379  .00010339  00000-0  71241-3 0  9997","RA_OF_ASC_NODE":"75.0980","TIME_SYSTEM":"UTC","MEAN_ANOMALY":"287.9216","EPOCH":"2023-04-11T08:35:31.527456","INCLINATION":"53.0573","ELEMENT_SET_NO":"999","RCS_SIZE":"LARGE","COUNTRY_CODE":"US","TLE_LINE2":"2 48393  53.0573  75.0980 0001197  72.1903 287.9216 15.06376786108251","PERIAPSIS":"546.456","OBJECT_NAME":"STARLINK-2602","REF_FRAME":"TEME","NORAD_CAT_ID":"48393","MEAN_ELEMENT_THEORY":"SGP4","EPHEMERIS_TYPE":"0","REV_AT_EPOCH":"10825","OBJECT_ID":"2021-038AS","ARG_OF_PERICENTER":"72.1903","GP_ID":"229915146","CENTER_NAME":"EARTH","BSTAR":"0.00071241000000","MEAN_MOTION_DOT":"0.00010339","SEMIMAJOR_AXIS":"6925.420","MEAN_MOTION_DDOT":"0.0000000000000","APOAPSIS":"548.114","OBJECT_TYPE":"PAYLOAD"},{"CENTER_NAME":"EARTH","BSTAR":"0.00092252000000","OBJECT_ID":"2021-038AT","ARG_OF_PERICENTER":"113.6575","GP_ID":"229913895","REV_AT_EPOCH":"10828","NORAD_CAT_ID":"48394","EPHEMERIS_TYPE":"0","MEAN_ELEMENT_THEORY":"SGP4","OBJECT_TYPE":"PAYLOAD","APOAPSIS":"548.158","MEAN_MOTION_DDOT":"0.0000000000000","SEMIMAJOR_AXIS":"6925.322","MEAN_MOTION_DOT":"0.00013489","CLASSIFICATION_TYPE":"U","TLE_LINE1":"1 48394U 21038AT  23101.55335736  .00013489  00000-0  92252-3 0  9994","MEAN_MOTION":"15.06408572","FILE":"3885783","SITE":"AFETR","ECCENTRICITY":"0.00014020","DECAY_DATE":null,"LAUNCH_DATE":"2021-05-04","PERIOD":"95.592","REF_FRAME":"TEME","OBJECT_NAME":"STARLINK-2573","TLE_LINE2":"2 48394  53.0562  74.2199 0001402 113.6575 246.4561 15.06408572108283","COUNTRY_CODE":"US","PERIAPSIS":"546.216","ELEMENT_SET_NO":"999","INCLINATION":"53.0562","RCS_SIZE":"LARGE","EPOCH":"2023-04-11T13:16:50.075904","MEAN_ANOMALY":"246.4561","RA_OF_ASC_NODE":"74.2199","TIME_SYSTEM":"UTC"},{"ELEMENT_SET_NO":"999","INCLINATION":"53.0546","RCS_SIZE":"LARGE","EPOCH":"2023-04-11T09:34:01.186176","MEAN_ANOMALY":"284.2671","TIME_SYSTEM":"UTC","RA_OF_ASC_NODE":"75.5408","REF_FRAME":"TEME","OBJECT_NAME":"STARLINK-2574","TLE_LINE2":"2 48395  53.0546  75.5408 0001072  75.8437 284.2671 15.06395979108257","COUNTRY_CODE":"US","PERIAPSIS":"546.483","ECCENTRICITY":"0.00010720","DECAY_DATE":null,"LAUNCH_DATE":"2021-05-04","PERIOD":"95.592","CLASSIFICATION_TYPE":"U","TLE_LINE1":"1 48395U 21038AU  23101.39862484 -.00001113  00000-0 -55846-4 0  9994","FILE":"3885783","MEAN_MOTION":"15.06395979","SITE":"AFETR","SEMIMAJOR_AXIS":"6925.361","MEAN_MOTION_DOT":"-0.00001113","OBJECT_TYPE":"PAYLOAD","APOAPSIS":"547.968","MEAN_MOTION_DDOT":"0.0000000000000","REV_AT_EPOCH":"10825","NORAD_CAT_ID":"48395","EPHEMERIS_TYPE":"0","MEAN_ELEMENT_THEORY":"SGP4","CENTER_NAME":"EARTH","BSTAR":"-0.00005584600000","ARG_OF_PERICENTER":"75.8437","OBJECT_ID":"2021-038AU","GP_ID":"229914145"},{"SITE":"AFETR","TLE_LINE1":"1 48396U 21038AV  23101.28428083  .00006005  00000-0  42169-3 0  9992","MEAN_MOTION":"15.06400422","FILE":"3885783","CLASSIFICATION_TYPE":"U","PERIOD":"95.592","ECCENTRICITY":"0.00010410","DECAY_DATE":null,"LAUNCH_DATE":"2021-05-04","PERIAPSIS":"546.491","TLE_LINE2":"2 48396  53.0527  75.4248 0001041 108.5368 251.5734 15.06400422108247","COUNTRY_CODE":"US","REF_FRAME":"TEME","OBJECT_NAME":"STARLINK-2575","EPOCH":"2023-04-11T06:49:21.863712","TIME_SYSTEM":"UTC","RA_OF_ASC_NODE":"75.4248","MEAN_ANOMALY":"251.5734","RCS_SIZE":"LARGE","ELEMENT_SET_NO":"999","INCLINATION":"53.0527","GP_ID":"229915396","ARG_OF_PERICENTER":"108.5368","OBJECT_ID":"2021-038AV","BSTAR":"0.00042169000000","CENTER_NAME":"EARTH","MEAN_ELEMENT_THEORY":"SGP4","EPHEMERIS_TYPE":"0","NORAD_CAT_ID":"48396","REV_AT_EPOCH":"10824","MEAN_MOTION_DDOT":"0.0000000000000","OBJECT_TYPE":"PAYLOAD","APOAPSIS":"547.933","MEAN_MOTION_DOT":"0.00006005","SEMIMAJOR_AXIS":"6925.347"},{"BSTAR":"0.00123200000000","CENTER_NAME":"EARTH","GP_ID":"229945239","ARG_OF_PERICENTER":"88.6737","OBJECT_ID":"2021-038AW","REV_AT_EPOCH":"10833","EPHEMERIS_TYPE":"0","MEAN_ELEMENT_THEORY":"SGP4","NORAD_CAT_ID":"48397","APOAPSIS":"548.026","OBJECT_TYPE":"PAYLOAD","MEAN_MOTION_DDOT":"0.0000000000000","SEMIMAJOR_AXIS":"6925.318","MEAN_MOTION_DOT":"0.00018122","MEAN_MOTION":"15.06409968","FILE":"3885919","TLE_LINE1":"1 48397U 21038AW  23101.87772528  .00018122  00000-0  12320-2 0  9992","CLASSIFICATION_TYPE":"U","SITE":"AFETR","DECAY_DATE":null,"LAUNCH_DATE":"2021-05-04","ECCENTRICITY":"0.00012170","PERIOD":"95.592","OBJECT_NAME":"STARLINK-2590","REF_FRAME":"TEME","PERIAPSIS":"546.340","TLE_LINE2":"2 48397  53.0552  72.7645 0001217  88.6737 271.4391 15.06409968108334","COUNTRY_CODE":"US","RCS_SIZE":"LARGE","INCLINATION":"53.0552","ELEMENT_SET_NO":"999","TIME_SYSTEM":"UTC","RA_OF_ASC_NODE":"72.7645","MEAN_ANOMALY":"271.4391","EPOCH":"2023-04-11T21:03:55.464192"},{"SEMIMAJOR_AXIS":"6925.340","MEAN_MOTION_DOT":"0.00002989","APOAPSIS":"548.050","OBJECT_TYPE":"PAYLOAD","MEAN_MOTION_DDOT":"0.0000000000000","REV_AT_EPOCH":"10823","NORAD_CAT_ID":"48398","MEAN_ELEMENT_THEORY":"SGP4","EPHEMERIS_TYPE":"0","CENTER_NAME":"EARTH","BSTAR":"0.00021948000000","OBJECT_ID":"2021-038AX","ARG_OF_PERICENTER":"72.3208","GP_ID":"229914395","INCLINATION":"53.0533","ELEMENT_SET_NO":"999","RCS_SIZE":"LARGE","RA_OF_ASC_NODE":"75.7577","TIME_SYSTEM":"UTC","MEAN_ANOMALY":"287.7914","EPOCH":"2023-04-11T05:03:12.686400","OBJECT_NAME":"STARLINK-2588","REF_FRAME":"TEME","COUNTRY_CODE":"US","TLE_LINE2":"2 48398  53.0533  75.7577 0001220  72.3208 287.7914 15.06402715108231","PERIAPSIS":"546.360","DECAY_DATE":null,"LAUNCH_DATE":"2021-05-04","ECCENTRICITY":"0.00012200","PERIOD":"95.592","CLASSIFICATION_TYPE":"U","MEAN_MOTION":"15.06402715","FILE":"3885783","TLE_LINE1":"1 48398U 21038AX  23101.21056350  .00002989  00000-0  21948-3 0  9990","SITE":"AFETR"},{"CLASSIFICATION_TYPE":"U","MEAN_MOTION":"15.06395517","FILE":"3885783","TLE_LINE1":"1 48399U 21038AY  23101.40592237  .00006374  00000-0  44644-3 0  9991","SITE":"AFETR","LAUNCH_DATE":"2021-05-04","DECAY_DATE":null,"ECCENTRICITY":"0.00014290","PERIOD":"95.592","OBJECT_NAME":"STARLINK-2587","REF_FRAME":"TEME","TLE_LINE2":"2 48399  53.0549  74.8802 0001429  84.2788 275.8364 15.06395517108256","COUNTRY_CODE":"US","PERIAPSIS":"546.238","INCLINATION":"53.0549","ELEMENT_SET_NO":"999","RCS_SIZE":"LARGE","MEAN_ANOMALY":"275.8364","TIME_SYSTEM":"UTC","RA_OF_ASC_NODE":"74.8802","EPOCH":"2023-04-11T09:44:31.692768","CENTER_NAME":"EARTH","BSTAR":"0.00044644000000","OBJECT_ID":"2021-038AY","ARG_OF_PERICENTER":"84.2788","GP_ID":"229914645","REV_AT_EPOCH":"10825","NORAD_CAT_ID":"48399","MEAN_ELEMENT_THEORY":"SGP4","EPHEMERIS_TYPE":"0","APOAPSIS":"548.217","OBJECT_TYPE":"PAYLOAD","MEAN_MOTION_DDOT":"0.0000000000000","SEMIMAJOR_AXIS":"6925.362","MEAN_MOTION_DOT":"0.00006374"}];
